[{"OBJECT_NAME":"STARLINK-30230","OBJECT_ID":"2023-113J","EPOCH":"2026-03-09T22:00:01.999584","MEAN_MOTION":15.23948745,"ECCENTRICITY":0.00017169,"INCLINATION":43.0048,"RA_OF_ASC_NODE":14.439,"ARG_OF_PERICENTER":268.4121,"MEAN_ANOMALY":100.0881,"EPHEMERIS_TYPE":0,"CLASSIFICATION_TYPE":"U","NORAD_CAT_ID":57503,"ELEMENT_SET_NO":999,"REV_AT_EPOCH":573,"BSTAR":0.036895562,"MEAN_MOTION_DOT":0.00988994,"MEAN_MOTION_DDOT":0},{"OBJECT_NAME":"COSMOS 1238","OBJECT_ID":"1981-003A","EPOCH":"2026-03-09T22:03:18.626112","MEAN_MOTION":14.12425394,"ECCENTRICITY":0.06407052,"INCLINATION":82.9572,"RA_OF_ASC_NODE":297.0051,"ARG_OF_PERICENTER":13.743,"MEAN_ANOMALY":348.0299,"EPHEMERIS_TYPE":0,"CLASSIFICATION_TYPE":"U","NORAD_CAT_ID":12138,"ELEMENT_SET_NO":999,"REV_AT_EPOCH":25589,"BSTAR":0.00028175975,"MEAN_MOTION_DOT":4.214e-5,"MEAN_MOTION_DDOT":0}]
